[{"OBJECT_NAME":"YUNHAI-2 02A","OBJECT_ID":"2024-052A","EPOCH":"2026-03-09T22:30:56.528064","MEAN_MOTION":14.27921019,"ECCENTRICITY":0.00118103,"INCLINATION":50.0092,"RA_OF_ASC_NODE":143.2802,"ARG_OF_PERICENTER":158.7153,"MEAN_ANOMALY":201.4256,"EPHEMERIS_TYPE":0,"CLASSIFICATION_TYPE":"U","NORAD_CAT_ID":59280,"ELEMENT_SET_NO":999,"REV_AT_EPOCH":8404,"BSTAR":0.00011847106,"MEAN_MOTION_DOT":1.34e-6,"MEAN_MOTION_DDOT":0},{"OBJECT_NAME":"FENGYUN 1C DEB","OBJECT_ID":"1999-025ABV","EPOCH":"2026-03-09T12:24:13.527072","MEAN_MOTION":14.21299195,"ECCENTRICITY":0.00818302,"INCLINATION":98.5575,"RA_OF_ASC_NODE":259.9288,"ARG_OF_PERICENTER":307.5574,"MEAN_ANOMALY":106.9214,"EPHEMERIS_TYPE":0,"CLASSIFICATION_TYPE":"U","NORAD_CAT_ID":30358,"ELEMENT_SET_NO":999,"REV_AT_EPOCH":98150,"BSTAR":0.001490075,"MEAN_MOTION_DOT":3.318e-5,"MEAN_MOTION_DDOT":0}]
